METEOR-M2 2             
1 44387U 19038A   23025.16011166  .00000121  00000+0  72301-4 0  9991
2 44387  98.7546 349.5087 0001729  32.3765 327.7523 14.23744240184955
